{
  "type": "FeatureCollection",
  "features": [
    {
      "type": "Feature",
      "properties": {
        "norad_id": 34814,
        "name": "COSMOS 2251 DEB",
        "group": "cosmos-2251-debris",
        "lat": 22.921890103227092,
        "lon": -24.074041764755158,
        "alt_km": 806.9937200973336,
        "timestamp": "2025-12-10T20:49:52.947799+00:00",
        "meta_object_name": "COSMOS 2251 DEB",
        "meta_object_id": "1993-036ABD",
        "meta_epoch": "2025-12-10T09:43:34.915008",
        "meta_mean_motion": 14.36877129,
        "meta_eccentricity": 0.00563648,
        "meta_inclination": 73.896,
        "meta_ra_of_asc_node": 329.7665,
        "meta_arg_of_pericenter": 219.7218,
        "meta_mean_anomaly": 291.6009,
        "meta_ephemeris_type": 0,
        "meta_classification_type": "U",
        "meta_norad_cat_id": 34814,
        "meta_element_set_no": 999,
        "meta_rev_at_epoch": 87299,
        "meta_bstar": 0.0011961739,
        "meta_mean_motion_dot": 3.577e-05,
        "meta_mean_motion_ddot": 0,
        "tle_line1": "1 34814U 93036ABD 25344.40526522  .00003577  00000+0  11962-2 0  9997",
        "tle_line2": "2 34814  73.8960 329.7665 0056364 219.7218 291.6009 14.36877129872997"
      },
      "geometry": {
        "type": "Point",
        "coordinates": [
          -24.074041764755158,
          22.921890103227092
        ]
      }
    },
    {
      "type": "Feature",
      "properties": {
        "norad_id": 34815,
        "name": "COSMOS 2251 DEB",
        "group": "cosmos-2251-debris",
        "lat": -71.23810397561728,
        "lon": 122.8503121630365,
        "alt_km": 617.884012488702,
        "timestamp": "2025-12-10T20:49:52.947809+00:00",
        "meta_object_name": "COSMOS 2251 DEB",
        "meta_object_id": "1993-036ABE",
        "meta_epoch": "2025-12-09T11:10:12.352800",
        "meta_mean_motion": 14.78241415,
        "meta_eccentricity": 0.00588661,
        "meta_inclination": 74.0452,
        "meta_ra_of_asc_node": 248.2294,
        "meta_arg_of_pericenter": 318.1055,
        "meta_mean_anomaly": 41.5622,
        "meta_ephemeris_type": 0,
        "meta_classification_type": "U",
        "meta_norad_cat_id": 34815,
        "meta_element_set_no": 999,
        "meta_rev_at_epoch": 88579,
        "meta_bstar": 0.0013749046,
        "meta_mean_motion_dot": 0.00010252,
        "meta_mean_motion_ddot": 0,
        "tle_line1": "1 34815U 93036ABE 25343.46542075  .00010252  00000+0  13749-2 0  9997",
        "tle_line2": "2 34815  74.0452 248.2294 0058866 318.1055  41.5622 14.78241415885796"
      },
      "geometry": {
        "type": "Point",
        "coordinates": [
          122.8503121630365,
          -71.23810397561728
        ]
      }
    },
    {
      "type": "Feature",
      "properties": {
        "norad_id": 34816,
        "name": "COSMOS 2251 DEB",
        "group": "cosmos-2251-debris",
        "lat": -52.83505145773379,
        "lon": 123.76199803105392,
        "alt_km": 1052.8936003379076,
        "timestamp": "2025-12-10T20:49:52.947819+00:00",
        "meta_object_name": "COSMOS 2251 DEB",
        "meta_object_id": "1993-036ABF",
        "meta_epoch": "2025-12-06T22:26:27.336768",
        "meta_mean_motion": 13.5829822,
        "meta_eccentricity": 0.03736298,
        "meta_inclination": 73.886,
        "meta_ra_of_asc_node": 152.5929,
        "meta_arg_of_pericenter": 218.068,
        "meta_mean_anomaly": 297.1187,
        "meta_ephemeris_type": 0,
        "meta_classification_type": "U",
        "meta_norad_cat_id": 34816,
        "meta_element_set_no": 999,
        "meta_rev_at_epoch": 82704,
        "meta_bstar": 0.0017880706,
        "meta_mean_motion_dot": 2.026e-05,
        "meta_mean_motion_ddot": 0,
        "tle_line1": "1 34816U 93036ABF 25340.93503862  .00002026  00000+0  17881-2 0  9999",
        "tle_line2": "2 34816  73.8860 152.5929 0373629 218.0680 297.1187 13.58298220827040"
      },
      "geometry": {
        "type": "Point",
        "coordinates": [
          123.76199803105392,
          -52.83505145773379
        ]
      }
    },
    {
      "type": "Feature",
      "properties": {
        "norad_id": 34818,
        "name": "COSMOS 2251 DEB",
        "group": "cosmos-2251-debris",
        "lat": 73.20497580465027,
        "lon": 48.86153307601881,
        "alt_km": 757.7815889796202,
        "timestamp": "2025-12-10T20:49:52.947829+00:00",
        "meta_object_name": "COSMOS 2251 DEB",
        "meta_object_id": "1993-036ABH",
        "meta_epoch": "2025-12-10T07:44:16.027008",
        "meta_mean_motion": 14.36962335,
        "meta_eccentricity": 0.0024056,
        "meta_inclination": 74.0356,
        "meta_ra_of_asc_node": 301.3836,
        "meta_arg_of_pericenter": 17.6421,
        "meta_mean_anomaly": 136.2189,
        "meta_ephemeris_type": 0,
        "meta_classification_type": "U",
        "meta_norad_cat_id": 34818,
        "meta_element_set_no": 999,
        "meta_rev_at_epoch": 87335,
        "meta_bstar": 0.0003859,
        "meta_mean_motion_dot": 1.121e-05,
        "meta_mean_motion_ddot": 0,
        "tle_line1": "1 34818U 93036ABH 25344.32240772  .00001121  00000+0  38590-3 0  9992",
        "tle_line2": "2 34818  74.0356 301.3836 0024056  17.6421 136.2189 14.36962335873351"
      },
      "geometry": {
        "type": "Point",
        "coordinates": [
          48.86153307601881,
          73.20497580465027
        ]
      }
    },
    {
      "type": "Feature",
      "properties": {
        "norad_id": 34819,
        "name": "COSMOS 2251 DEB",
        "group": "cosmos-2251-debris",
        "lat": -10.72304444690366,
        "lon": -30.630894869944434,
        "alt_km": 677.1518032672875,
        "timestamp": "2025-12-10T20:49:52.947839+00:00",
        "meta_object_name": "COSMOS 2251 DEB",
        "meta_object_id": "1993-036ABJ",
        "meta_epoch": "2025-12-09T21:41:51.224640",
        "meta_mean_motion": 14.63892789,
        "meta_eccentricity": 0.00157861,
        "meta_inclination": 74.0186,
        "meta_ra_of_asc_node": 148.1101,
        "meta_arg_of_pericenter": 242.0271,
        "meta_mean_anomaly": 271.3932,
        "meta_ephemeris_type": 0,
        "meta_classification_type": "U",
        "meta_norad_cat_id": 34819,
        "meta_element_set_no": 999,
        "meta_rev_at_epoch": 88187,
        "meta_bstar": 0.0022468866,
        "meta_mean_motion_dot": 0.00011759,
        "meta_mean_motion_ddot": 0,
        "tle_line1": "1 34819U 93036ABJ 25343.90406510  .00011759  00000+0  22469-2 0  9995",
        "tle_line2": "2 34819  74.0186 148.1101 0015786 242.0271 271.3932 14.63892789881870"
      },
      "geometry": {
        "type": "Point",
        "coordinates": [
          -30.630894869944434,
          -10.72304444690366
        ]
      }
    },
    {
      "type": "Feature",
      "properties": {
        "norad_id": 34823,
        "name": "COSMOS 2251 DEB",
        "group": "cosmos-2251-debris",
        "lat": -55.70791513762599,
        "lon": 81.01367960669313,
        "alt_km": 751.9789692333215,
        "timestamp": "2025-12-10T20:49:52.947849+00:00",
        "meta_object_name": "COSMOS 2251 DEB",
        "meta_object_id": "1993-036ABN",
        "meta_epoch": "2025-12-10T14:30:29.359008",
        "meta_mean_motion": 14.54904355,
        "meta_eccentricity": 0.01548874,
        "meta_inclination": 74.0414,
        "meta_ra_of_asc_node": 106.322,
        "meta_arg_of_pericenter": 191.6219,
        "meta_mean_anomaly": 168.1356,
        "meta_ephemeris_type": 0,
        "meta_classification_type": "U",
        "meta_norad_cat_id": 34823,
        "meta_element_set_no": 999,
        "meta_rev_at_epoch": 88350,
        "meta_bstar": 0.0013618052,
        "meta_mean_motion_dot": 6.85e-05,
        "meta_mean_motion_ddot": 0,
        "tle_line1": "1 34823U 93036ABN 25344.60450647  .00006850  00000+0  13618-2 0  9990",
        "tle_line2": "2 34823  74.0414 106.3220 0154887 191.6219 168.1356 14.54904355883502"
      },
      "geometry": {
        "type": "Point",
        "coordinates": [
          81.01367960669313,
          -55.70791513762599
        ]
      }
    },
    {
      "type": "Feature",
      "properties": {
        "norad_id": 34845,
        "name": "COSMOS 2251 DEB",
        "group": "cosmos-2251-debris",
        "lat": -30.33165287949422,
        "lon": 142.19462095187424,
        "alt_km": 729.5577781298871,
        "timestamp": "2025-12-10T20:49:52.947859+00:00",
        "meta_object_name": "COSMOS 2251 DEB",
        "meta_object_id": "1993-036ABP",
        "meta_epoch": "2025-12-09T20:04:05.418048",
        "meta_mean_motion": 14.45850049,
        "meta_eccentricity": 0.00222586,
        "meta_inclination": 74.0237,
        "meta_ra_of_asc_node": 153.7694,
        "meta_arg_of_pericenter": 315.2139,
        "meta_mean_anomaly": 44.7222,
        "meta_ephemeris_type": 0,
        "meta_classification_type": "U",
        "meta_norad_cat_id": 34845,
        "meta_element_set_no": 999,
        "meta_rev_at_epoch": 87424,
        "meta_bstar": 0.00046671234,
        "meta_mean_motion_dot": 1.636e-05,
        "meta_mean_motion_ddot": 0,
        "tle_line1": "1 34845U 93036ABP 25343.83617382  .00001636  00000+0  46671-3 0  9992",
        "tle_line2": "2 34845  74.0237 153.7694 0022258 315.2139  44.7222 14.45850049874243"
      },
      "geometry": {
        "type": "Point",
        "coordinates": [
          142.19462095187424,
          -30.33165287949422
        ]
      }
    }
  ]
}